<?xml version="1.0" encoding="UTF-8"?>
<kml xmlns="http://www.opengis.net/kml/2.2">
<Document>
<name>AIN 2026 FBO Survey - International</name>
<Placemark><name>TAG Aviation Macau (VMMC)</name><description><![CDATA[<b>TAG Aviation Macau</b><br/>Airport: Macau Intl (VMMC)<br/>Score: 4.75 / 5.00<br/>Tier: Top 5%<br/>Region: Asia-Pacific<br/>Source: 2026 AIN FBO Survey (April 2026)]]></description><Style><IconStyle><scale>1.4</scale><Icon><href>http://maps.google.com/mapfiles/kml/paddle/ylw-stars.png</href></Icon></IconStyle><LabelStyle><scale>1.1</scale></LabelStyle></Style><Point><coordinates>113.592000,22.149600,0</coordinates></Point></Placemark>

<Placemark><name>Farnborough Airport (EGLF)</name><description><![CDATA[<b>Farnborough Airport</b><br/>Airport: Farnborough (EGLF)<br/>Score: 4.69 / 5.00<br/>Tier: Top 5%<br/>Region: Europe<br/>Source: 2026 AIN FBO Survey (April 2026)]]></description><Style><IconStyle><scale>1.4</scale><Icon><href>http://maps.google.com/mapfiles/kml/paddle/ylw-stars.png</href></Icon></IconStyle><LabelStyle><scale>1.1</scale></LabelStyle></Style><Point><coordinates>-0.776330,51.275800,0</coordinates></Point></Placemark>

<Placemark><name>Harrods Aviation (EGSS)</name><description><![CDATA[<b>Harrods Aviation</b><br/>Airport: London Stansted (EGSS)<br/>Score: 4.64 / 5.00<br/>Tier: Top 10%<br/>Region: Europe<br/>Source: 2026 AIN FBO Survey (April 2026)]]></description><Style><IconStyle><scale>1.2</scale><Icon><href>http://maps.google.com/mapfiles/kml/paddle/orange-circle.png</href></Icon></IconStyle><LabelStyle><scale>0.9</scale></LabelStyle></Style><Point><coordinates>0.235000,51.885000,0</coordinates></Point></Placemark>

<Placemark><name>ExecuJet Australia (YSSY)</name><description><![CDATA[<b>ExecuJet Australia</b><br/>Airport: Sydney Kingsford Smith (YSSY)<br/>Score: 4.60 / 5.00<br/>Tier: Top 10%<br/>Region: Asia-Pacific<br/>Source: 2026 AIN FBO Survey (April 2026)]]></description><Style><IconStyle><scale>1.2</scale><Icon><href>http://maps.google.com/mapfiles/kml/paddle/orange-circle.png</href></Icon></IconStyle><LabelStyle><scale>0.9</scale></LabelStyle></Style><Point><coordinates>151.177000,-33.946100,0</coordinates></Point></Placemark>

<Placemark><name>Universal Aviation (EGSS)</name><description><![CDATA[<b>Universal Aviation</b><br/>Airport: London Stansted (EGSS)<br/>Score: 4.58 / 5.00<br/>Tier: Top 20%<br/>Region: Europe<br/>Source: 2026 AIN FBO Survey (April 2026)]]></description><Style><IconStyle><scale>1.0</scale><Icon><href>http://maps.google.com/mapfiles/kml/paddle/ylw-circle.png</href></Icon></IconStyle><LabelStyle><scale>0.8</scale></LabelStyle></Style><Point><coordinates>0.235000,51.885000,0</coordinates></Point></Placemark>

<Placemark><name>Jet Aviation (EHAM)</name><description><![CDATA[<b>Jet Aviation</b><br/>Airport: Amsterdam Schiphol (EHAM)<br/>Score: 4.56 / 5.00<br/>Tier: Top 20%<br/>Region: Europe<br/>Source: 2026 AIN FBO Survey (April 2026)]]></description><Style><IconStyle><scale>1.0</scale><Icon><href>http://maps.google.com/mapfiles/kml/paddle/ylw-circle.png</href></Icon></IconStyle><LabelStyle><scale>0.8</scale></LabelStyle></Style><Point><coordinates>4.763890,52.308600,0</coordinates></Point></Placemark>

<Placemark><name>MJets FBO (VTBD)</name><description><![CDATA[<b>MJets FBO</b><br/>Airport: Don Mueang Intl (VTBD)<br/>Score: 4.51 / 5.00<br/>Tier: Top 20%<br/>Region: Asia-Pacific<br/>Source: 2026 AIN FBO Survey (April 2026)]]></description><Style><IconStyle><scale>1.0</scale><Icon><href>http://maps.google.com/mapfiles/kml/paddle/ylw-circle.png</href></Icon></IconStyle><LabelStyle><scale>0.8</scale></LabelStyle></Style><Point><coordinates>100.607000,13.912600,0</coordinates></Point></Placemark>

<Placemark><name>Hong Kong Business Aviation Centre (VHHH)</name><description><![CDATA[<b>Hong Kong Business Aviation Centre</b><br/>Airport: Hong Kong Intl (VHHH)<br/>Score: 4.48 / 5.00<br/>Tier: Top 20%<br/>Region: Asia-Pacific<br/>Source: 2026 AIN FBO Survey (April 2026)]]></description><Style><IconStyle><scale>1.0</scale><Icon><href>http://maps.google.com/mapfiles/kml/paddle/ylw-circle.png</href></Icon></IconStyle><LabelStyle><scale>0.8</scale></LabelStyle></Style><Point><coordinates>113.915000,22.308900,0</coordinates></Point></Placemark>

<Placemark><name>Jet Aviation (LSZH)</name><description><![CDATA[<b>Jet Aviation</b><br/>Airport: Zurich (LSZH)<br/>Score: 4.47 / 5.00<br/>Tier: Surveyed<br/>Region: Europe<br/>Source: 2026 AIN FBO Survey (April 2026)]]></description><Style><IconStyle><scale>0.8</scale><Icon><href>http://maps.google.com/mapfiles/kml/paddle/purple-circle.png</href></Icon></IconStyle><LabelStyle><scale>0.7</scale></LabelStyle></Style><Point><coordinates>8.549170,47.464700,0</coordinates></Point></Placemark>

<Placemark><name>Jet Aviation (LSGG)</name><description><![CDATA[<b>Jet Aviation</b><br/>Airport: Geneva Intl (LSGG)<br/>Score: 4.41 / 5.00<br/>Tier: Surveyed<br/>Region: Europe<br/>Source: 2026 AIN FBO Survey (April 2026)]]></description><Style><IconStyle><scale>0.8</scale><Icon><href>http://maps.google.com/mapfiles/kml/paddle/purple-circle.png</href></Icon></IconStyle><LabelStyle><scale>0.7</scale></LabelStyle></Style><Point><coordinates>6.108950,46.238100,0</coordinates></Point></Placemark>

<Placemark><name>Omni Handling (LPPT)</name><description><![CDATA[<b>Omni Handling</b><br/>Airport: Lisbon Intl (LPPT)<br/>Score: 4.40 / 5.00<br/>Tier: Surveyed<br/>Region: Europe<br/>Source: 2026 AIN FBO Survey (April 2026)]]></description><Style><IconStyle><scale>0.8</scale><Icon><href>http://maps.google.com/mapfiles/kml/paddle/purple-circle.png</href></Icon></IconStyle><LabelStyle><scale>0.7</scale></LabelStyle></Style><Point><coordinates>-9.135920,38.781300,0</coordinates></Point></Placemark>

<Placemark><name>Advanced Air Support (LFPB)</name><description><![CDATA[<b>Advanced Air Support</b><br/>Airport: Paris Le Bourget (LFPB)<br/>Score: 4.34 / 5.00<br/>Tier: Surveyed<br/>Region: Europe<br/>Source: 2026 AIN FBO Survey (April 2026)]]></description><Style><IconStyle><scale>0.8</scale><Icon><href>http://maps.google.com/mapfiles/kml/paddle/purple-circle.png</href></Icon></IconStyle><LabelStyle><scale>0.7</scale></LabelStyle></Style><Point><coordinates>2.441390,48.969400,0</coordinates></Point></Placemark>

<Placemark><name>Universal Aviation (WSSL)</name><description><![CDATA[<b>Universal Aviation</b><br/>Airport: Singapore/Seletar (WSSL)<br/>Score: 4.31 / 5.00<br/>Tier: Surveyed<br/>Region: Asia-Pacific<br/>Source: 2026 AIN FBO Survey (April 2026)]]></description><Style><IconStyle><scale>0.8</scale><Icon><href>http://maps.google.com/mapfiles/kml/paddle/purple-circle.png</href></Icon></IconStyle><LabelStyle><scale>0.7</scale></LabelStyle></Style><Point><coordinates>103.868000,1.416950,0</coordinates></Point></Placemark>

<Placemark><name>Jet Aviation (WSSL)</name><description><![CDATA[<b>Jet Aviation</b><br/>Airport: Singapore/Seletar (WSSL)<br/>Score: 4.27 / 5.00<br/>Tier: Surveyed<br/>Region: Asia-Pacific<br/>Source: 2026 AIN FBO Survey (April 2026)]]></description><Style><IconStyle><scale>0.8</scale><Icon><href>http://maps.google.com/mapfiles/kml/paddle/purple-circle.png</href></Icon></IconStyle><LabelStyle><scale>0.7</scale></LabelStyle></Style><Point><coordinates>103.868000,1.416950,0</coordinates></Point></Placemark>

<Placemark><name>Universal Aviation (LFPB)</name><description><![CDATA[<b>Universal Aviation</b><br/>Airport: Paris Le Bourget (LFPB)<br/>Score: 4.20 / 5.00<br/>Tier: Surveyed<br/>Region: Europe<br/>Source: 2026 AIN FBO Survey (April 2026)]]></description><Style><IconStyle><scale>0.8</scale><Icon><href>http://maps.google.com/mapfiles/kml/paddle/purple-circle.png</href></Icon></IconStyle><LabelStyle><scale>0.7</scale></LabelStyle></Style><Point><coordinates>2.441390,48.969400,0</coordinates></Point></Placemark>

<Placemark><name>Jet Aviation (OMDB)</name><description><![CDATA[<b>Jet Aviation</b><br/>Airport: Dubai Intl (OMDB)<br/>Score: 4.19 / 5.00<br/>Tier: Surveyed<br/>Region: Middle East<br/>Source: 2026 AIN FBO Survey (April 2026)]]></description><Style><IconStyle><scale>0.8</scale><Icon><href>http://maps.google.com/mapfiles/kml/paddle/purple-circle.png</href></Icon></IconStyle><LabelStyle><scale>0.7</scale></LabelStyle></Style><Point><coordinates>55.364400,25.252800,0</coordinates></Point></Placemark>

<Placemark><name>Dassault Falcon Service (LFPB)</name><description><![CDATA[<b>Dassault Falcon Service</b><br/>Airport: Paris Le Bourget (LFPB)<br/>Score: 4.18 / 5.00<br/>Tier: Surveyed<br/>Region: Europe<br/>Source: 2026 AIN FBO Survey (April 2026)]]></description><Style><IconStyle><scale>0.8</scale><Icon><href>http://maps.google.com/mapfiles/kml/paddle/purple-circle.png</href></Icon></IconStyle><LabelStyle><scale>0.7</scale></LabelStyle></Style><Point><coordinates>2.441390,48.969400,0</coordinates></Point></Placemark>

<Placemark><name>Sky Valet (LFMD)</name><description><![CDATA[<b>Sky Valet</b><br/>Airport: Cannes-Mandelieu (LFMD)<br/>Score: 4.14 / 5.00<br/>Tier: Surveyed<br/>Region: Europe<br/>Source: 2026 AIN FBO Survey (April 2026)]]></description><Style><IconStyle><scale>0.8</scale><Icon><href>http://maps.google.com/mapfiles/kml/paddle/purple-circle.png</href></Icon></IconStyle><LabelStyle><scale>0.7</scale></LabelStyle></Style><Point><coordinates>6.953480,43.542000,0</coordinates></Point></Placemark>

<Placemark><name>DC Aviation G-OPS (LFMN)</name><description><![CDATA[<b>DC Aviation G-OPS</b><br/>Airport: Nice Cote d'Azur Intl (LFMN)<br/>Score: 4.10 / 5.00<br/>Tier: Surveyed<br/>Region: Europe<br/>Source: 2026 AIN FBO Survey (April 2026)]]></description><Style><IconStyle><scale>0.8</scale><Icon><href>http://maps.google.com/mapfiles/kml/paddle/purple-circle.png</href></Icon></IconStyle><LabelStyle><scale>0.7</scale></LabelStyle></Style><Point><coordinates>7.215870,43.658400,0</coordinates></Point></Placemark>

<Placemark><name>Sky Valet (LEMD)</name><description><![CDATA[<b>Sky Valet</b><br/>Airport: Madrid Barajas Intl (LEMD)<br/>Score: 4.09 / 5.00<br/>Tier: Surveyed<br/>Region: Europe<br/>Source: 2026 AIN FBO Survey (April 2026)]]></description><Style><IconStyle><scale>0.8</scale><Icon><href>http://maps.google.com/mapfiles/kml/paddle/purple-circle.png</href></Icon></IconStyle><LabelStyle><scale>0.7</scale></LabelStyle></Style><Point><coordinates>-3.566760,40.493600,0</coordinates></Point></Placemark>

<Placemark><name>Signature Aviation (EDDM)</name><description><![CDATA[<b>Signature Aviation</b><br/>Airport: Munich Intl (EDDM)<br/>Score: 4.09 / 5.00<br/>Tier: Surveyed<br/>Region: Europe<br/>Source: 2026 AIN FBO Survey (April 2026)]]></description><Style><IconStyle><scale>0.8</scale><Icon><href>http://maps.google.com/mapfiles/kml/paddle/purple-circle.png</href></Icon></IconStyle><LabelStyle><scale>0.7</scale></LabelStyle></Style><Point><coordinates>11.786100,48.353800,0</coordinates></Point></Placemark>

<Placemark><name>Aviapartner Executive (LFMN)</name><description><![CDATA[<b>Aviapartner Executive</b><br/>Airport: Nice Cote d'Azur Intl (LFMN)<br/>Score: 4.07 / 5.00<br/>Tier: Surveyed<br/>Region: Europe<br/>Source: 2026 AIN FBO Survey (April 2026)]]></description><Style><IconStyle><scale>0.8</scale><Icon><href>http://maps.google.com/mapfiles/kml/paddle/purple-circle.png</href></Icon></IconStyle><LabelStyle><scale>0.7</scale></LabelStyle></Style><Point><coordinates>7.215870,43.658400,0</coordinates></Point></Placemark>

<Placemark><name>Jetex (LFPB)</name><description><![CDATA[<b>Jetex</b><br/>Airport: Paris Le Bourget (LFPB)<br/>Score: 4.03 / 5.00<br/>Tier: Surveyed<br/>Region: Europe<br/>Source: 2026 AIN FBO Survey (April 2026)]]></description><Style><IconStyle><scale>0.8</scale><Icon><href>http://maps.google.com/mapfiles/kml/paddle/purple-circle.png</href></Icon></IconStyle><LabelStyle><scale>0.7</scale></LabelStyle></Style><Point><coordinates>2.441390,48.969400,0</coordinates></Point></Placemark>

<Placemark><name>Signature Aviation (LFMN)</name><description><![CDATA[<b>Signature Aviation</b><br/>Airport: Nice Cote d'Azur Intl (LFMN)<br/>Score: 4.04 / 5.00<br/>Tier: Surveyed<br/>Region: Europe<br/>Source: 2026 AIN FBO Survey (April 2026)]]></description><Style><IconStyle><scale>0.8</scale><Icon><href>http://maps.google.com/mapfiles/kml/paddle/purple-circle.png</href></Icon></IconStyle><LabelStyle><scale>0.7</scale></LabelStyle></Style><Point><coordinates>7.215870,43.658400,0</coordinates></Point></Placemark>

<Placemark><name>Eccelsa Handling (LIEO)</name><description><![CDATA[<b>Eccelsa Handling</b><br/>Airport: Olbia Costa Smeralda (LIEO)<br/>Score: 4.01 / 5.00<br/>Tier: Surveyed<br/>Region: Europe<br/>Source: 2026 AIN FBO Survey (April 2026)]]></description><Style><IconStyle><scale>0.8</scale><Icon><href>http://maps.google.com/mapfiles/kml/paddle/purple-circle.png</href></Icon></IconStyle><LabelStyle><scale>0.7</scale></LabelStyle></Style><Point><coordinates>9.517630,40.898700,0</coordinates></Point></Placemark>

<Placemark><name>Harrods Aviation (EGGW)</name><description><![CDATA[<b>Harrods Aviation</b><br/>Airport: London Luton (EGGW)<br/>Score: 4.00 / 5.00<br/>Tier: Surveyed<br/>Region: Europe<br/>Source: 2026 AIN FBO Survey (April 2026)]]></description><Style><IconStyle><scale>0.8</scale><Icon><href>http://maps.google.com/mapfiles/kml/paddle/purple-circle.png</href></Icon></IconStyle><LabelStyle><scale>0.7</scale></LabelStyle></Style><Point><coordinates>-0.368330,51.874700,0</coordinates></Point></Placemark>

<Placemark><name>Signature Aviation (LSGG)</name><description><![CDATA[<b>Signature Aviation</b><br/>Airport: Geneva Intl (LSGG)<br/>Score: 3.98 / 5.00<br/>Tier: Surveyed<br/>Region: Europe<br/>Source: 2026 AIN FBO Survey (April 2026)]]></description><Style><IconStyle><scale>0.8</scale><Icon><href>http://maps.google.com/mapfiles/kml/paddle/purple-circle.png</href></Icon></IconStyle><LabelStyle><scale>0.7</scale></LabelStyle></Style><Point><coordinates>6.108950,46.238100,0</coordinates></Point></Placemark>

<Placemark><name>Grafair Jet Center (ESSB)</name><description><![CDATA[<b>Grafair Jet Center</b><br/>Airport: Stockholm Bromma (ESSB)<br/>Score: 3.98 / 5.00<br/>Tier: Surveyed<br/>Region: Europe<br/>Source: 2026 AIN FBO Survey (April 2026)]]></description><Style><IconStyle><scale>0.8</scale><Icon><href>http://maps.google.com/mapfiles/kml/paddle/purple-circle.png</href></Icon></IconStyle><LabelStyle><scale>0.7</scale></LabelStyle></Style><Point><coordinates>17.941700,59.354400,0</coordinates></Point></Placemark>

<Placemark><name>Vienna Aircraft Handling (LOWW)</name><description><![CDATA[<b>Vienna Aircraft Handling</b><br/>Airport: Vienna Intl (LOWW)<br/>Score: 3.97 / 5.00<br/>Tier: Surveyed<br/>Region: Europe<br/>Source: 2026 AIN FBO Survey (April 2026)]]></description><Style><IconStyle><scale>0.8</scale><Icon><href>http://maps.google.com/mapfiles/kml/paddle/purple-circle.png</href></Icon></IconStyle><LabelStyle><scale>0.7</scale></LabelStyle></Style><Point><coordinates>16.569700,48.110300,0</coordinates></Point></Placemark>

<Placemark><name>London Jet Centre (EGSS)</name><description><![CDATA[<b>London Jet Centre</b><br/>Airport: London Stansted (EGSS)<br/>Score: 3.96 / 5.00<br/>Tier: Surveyed<br/>Region: Europe<br/>Source: 2026 AIN FBO Survey (April 2026)]]></description><Style><IconStyle><scale>0.8</scale><Icon><href>http://maps.google.com/mapfiles/kml/paddle/purple-circle.png</href></Icon></IconStyle><LabelStyle><scale>0.7</scale></LabelStyle></Style><Point><coordinates>0.235000,51.885000,0</coordinates></Point></Placemark>

<Placemark><name>Jet Aviation (EDDL)</name><description><![CDATA[<b>Jet Aviation</b><br/>Airport: Dusseldorf (EDDL)<br/>Score: 3.94 / 5.00<br/>Tier: Surveyed<br/>Region: Europe<br/>Source: 2026 AIN FBO Survey (April 2026)]]></description><Style><IconStyle><scale>0.8</scale><Icon><href>http://maps.google.com/mapfiles/kml/paddle/purple-circle.png</href></Icon></IconStyle><LabelStyle><scale>0.7</scale></LabelStyle></Style><Point><coordinates>6.766780,51.289500,0</coordinates></Point></Placemark>

<Placemark><name>ExecuJet Middle East (OMDB)</name><description><![CDATA[<b>ExecuJet Middle East</b><br/>Airport: Dubai Intl (OMDB)<br/>Score: 3.92 / 5.00<br/>Tier: Surveyed<br/>Region: Middle East<br/>Source: 2026 AIN FBO Survey (April 2026)]]></description><Style><IconStyle><scale>0.8</scale><Icon><href>http://maps.google.com/mapfiles/kml/paddle/purple-circle.png</href></Icon></IconStyle><LabelStyle><scale>0.7</scale></LabelStyle></Style><Point><coordinates>55.364400,25.252800,0</coordinates></Point></Placemark>

<Placemark><name>Biggin Hill Executive Handling (EGKB)</name><description><![CDATA[<b>Biggin Hill Executive Handling</b><br/>Airport: Biggin Hill (EGKB)<br/>Score: 3.85 / 5.00<br/>Tier: Surveyed<br/>Region: Europe<br/>Source: 2026 AIN FBO Survey (April 2026)]]></description><Style><IconStyle><scale>0.8</scale><Icon><href>http://maps.google.com/mapfiles/kml/paddle/purple-circle.png</href></Icon></IconStyle><LabelStyle><scale>0.7</scale></LabelStyle></Style><Point><coordinates>0.032500,51.330800,0</coordinates></Point></Placemark>

<Placemark><name>Signature Aviation (LFPB)</name><description><![CDATA[<b>Signature Aviation</b><br/>Airport: Paris Le Bourget (LFPB)<br/>Score: 3.82 / 5.00<br/>Tier: Surveyed<br/>Region: Europe<br/>Source: 2026 AIN FBO Survey (April 2026)]]></description><Style><IconStyle><scale>0.8</scale><Icon><href>http://maps.google.com/mapfiles/kml/paddle/purple-circle.png</href></Icon></IconStyle><LabelStyle><scale>0.7</scale></LabelStyle></Style><Point><coordinates>2.441390,48.969400,0</coordinates></Point></Placemark>

<Placemark><name>Signature Aviation (EGGW)</name><description><![CDATA[<b>Signature Aviation</b><br/>Airport: London Luton (EGGW)<br/>Score: 3.65 / 5.00<br/>Tier: Surveyed<br/>Region: Europe<br/>Source: 2026 AIN FBO Survey (April 2026)]]></description><Style><IconStyle><scale>0.8</scale><Icon><href>http://maps.google.com/mapfiles/kml/paddle/purple-circle.png</href></Icon></IconStyle><LabelStyle><scale>0.7</scale></LabelStyle></Style><Point><coordinates>-0.368330,51.874700,0</coordinates></Point></Placemark>

<Placemark><name>Jet Aviation (LSZH)</name><description><![CDATA[<b>Jet Aviation</b><br/>Airport: Zurich (LSZH)<br/>Score: 3.61 / 5.00<br/>Tier: Surveyed<br/>Region: Europe<br/>Source: 2026 AIN FBO Survey (April 2026)]]></description><Style><IconStyle><scale>0.8</scale><Icon><href>http://maps.google.com/mapfiles/kml/paddle/purple-circle.png</href></Icon></IconStyle><LabelStyle><scale>0.7</scale></LabelStyle></Style><Point><coordinates>8.549170,47.464700,0</coordinates></Point></Placemark>

<Placemark><name>Business Flight Centre (EFHK)</name><description><![CDATA[<b>Business Flight Centre</b><br/>Airport: Helsinki-Vantaa (EFHK)<br/>Score: 3.59 / 5.00<br/>Tier: Surveyed<br/>Region: Europe<br/>Source: 2026 AIN FBO Survey (April 2026)]]></description><Style><IconStyle><scale>0.8</scale><Icon><href>http://maps.google.com/mapfiles/kml/paddle/purple-circle.png</href></Icon></IconStyle><LabelStyle><scale>0.7</scale></LabelStyle></Style><Point><coordinates>24.963300,60.317200,0</coordinates></Point></Placemark>

<Placemark><name>Universal Aviation/CJET (ZBAA)</name><description><![CDATA[<b>Universal Aviation/CJET</b><br/>Airport: Beijing Capital Intl (ZBAA)<br/>Score: 3.48 / 5.00<br/>Tier: Surveyed<br/>Region: Asia-Pacific<br/>Source: 2026 AIN FBO Survey (April 2026)]]></description><Style><IconStyle><scale>0.8</scale><Icon><href>http://maps.google.com/mapfiles/kml/paddle/purple-circle.png</href></Icon></IconStyle><LabelStyle><scale>0.7</scale></LabelStyle></Style><Point><coordinates>116.585000,40.080100,0</coordinates></Point></Placemark>

<Placemark><name>Vipport Vnukovo-3 (UUWW)</name><description><![CDATA[<b>Vipport Vnukovo-3</b><br/>Airport: Moscow Vnukovo (UUWW)<br/>Score: 3.00 / 5.00<br/>Tier: Surveyed<br/>Region: Europe<br/>Source: 2026 AIN FBO Survey (April 2026)]]></description><Style><IconStyle><scale>0.8</scale><Icon><href>http://maps.google.com/mapfiles/kml/paddle/purple-circle.png</href></Icon></IconStyle><LabelStyle><scale>0.7</scale></LabelStyle></Style><Point><coordinates>37.261500,55.591500,0</coordinates></Point></Placemark>

</Document>
</kml>